TEVEL2-7                
1 63238U 25052AE  26068.66113296  .00019244  00000+0  69668-3 0  9999
2 63238  97.4054 324.3041 0008104 124.6830 235.5175 15.28414096 54802
STARLINK-32940          
1 63568U 25075W   26068.92198505  .00028670  00000+0  10463-2 0  9996
2 63568  43.0005 269.2315 0001783 288.3145  71.7513 15.27610947 51967
